{
  "type": "FeatureCollection",
  "features": [
    {
      "type": "Feature",
      "properties": {
        "norad_id": 41384,
        "name": "IRNSS-1F",
        "group": "gnss",
        "lat": 4.428328192318646,
        "lon": 166.7528734942308,
        "alt_km": 35825.07407323011,
        "timestamp": "2025-12-08T03:50:07.240876+00:00",
        "meta_object_name": "IRNSS-1F",
        "meta_object_id": "2016-015A",
        "meta_epoch": "2025-12-07T01:48:09.434880",
        "meta_mean_motion": 1.0026953,
        "meta_eccentricity": 0.00224504,
        "meta_inclination": 4.8662,
        "meta_ra_of_asc_node": 101.44,
        "meta_arg_of_pericenter": 179.9759,
        "meta_mean_anomaly": 214.0959,
        "meta_ephemeris_type": 0,
        "meta_classification_type": "U",
        "meta_norad_cat_id": 41384,
        "meta_element_set_no": 999,
        "meta_rev_at_epoch": 3574,
        "meta_bstar": 0,
        "meta_mean_motion_dot": 1.61e-06,
        "meta_mean_motion_ddot": 0,
        "tle_line1": "1 41384U 16015A   25341.07510920  .00000161  00000+0  00000+0 0  9998",
        "tle_line2": "2 41384   4.8662 101.4400 0022450 179.9759 214.0959  1.00269530 35743"
      },
      "geometry": {
        "type": "Point",
        "coordinates": [
          166.7528734942308,
          4.428328192318646
        ]
      }
    },
    {
      "type": "Feature",
      "properties": {
        "norad_id": 41434,
        "name": "BEIDOU-2 IGSO-6 (C13)",
        "group": "gnss",
        "lat": -4.984764349105886,
        "lon": -137.1270751732544,
        "alt_km": 35616.03586995251,
        "timestamp": "2025-12-08T03:50:07.240891+00:00",
        "meta_object_name": "BEIDOU-2 IGSO-6 (C13)",
        "meta_object_id": "2016-021A",
        "meta_epoch": "2025-12-01T15:57:35.287200",
        "meta_mean_motion": 1.00256562,
        "meta_eccentricity": 0.00591323,
        "meta_inclination": 59.9483,
        "meta_ra_of_asc_node": 40.0119,
        "meta_arg_of_pericenter": 231.2834,
        "meta_mean_anomaly": 130.8807,
        "meta_ephemeris_type": 0,
        "meta_classification_type": "U",
        "meta_norad_cat_id": 41434,
        "meta_element_set_no": 999,
        "meta_rev_at_epoch": 3550,
        "meta_bstar": 0,
        "meta_mean_motion_dot": -1.55e-06,
        "meta_mean_motion_ddot": 0,
        "tle_line1": "1 41434U 16021A   25335.66499175 -.00000155  00000+0  00000+0 0  9991",
        "tle_line2": "2 41434  59.9483  40.0119 0059132 231.2834 130.8807  1.00256562 35501"
      },
      "geometry": {
        "type": "Point",
        "coordinates": [
          -137.1270751732544,
          -4.984764349105886
        ]
      }
    },
    {
      "type": "Feature",
      "properties": {
        "norad_id": 41469,
        "name": "IRNSS-1G",
        "group": "gnss",
        "lat": 1.4472498696430598,
        "lon": -95.91570543773554,
        "alt_km": 35811.232548603264,
        "timestamp": "2025-12-08T03:50:07.240905+00:00",
        "meta_object_name": "IRNSS-1G",
        "meta_object_id": "2016-027A",
        "meta_epoch": "2025-12-07T05:41:23.125344",
        "meta_mean_motion": 1.00251985,
        "meta_eccentricity": 0.00046561,
        "meta_inclination": 4.7193,
        "meta_ra_of_asc_node": 102.2409,
        "meta_arg_of_pericenter": 336.6889,
        "meta_mean_anomaly": 212.0722,
        "meta_ephemeris_type": 0,
        "meta_classification_type": "U",
        "meta_norad_cat_id": 41469,
        "meta_element_set_no": 999,
        "meta_rev_at_epoch": 3525,
        "meta_bstar": 0,
        "meta_mean_motion_dot": -3.33e-06,
        "meta_mean_motion_ddot": 0,
        "tle_line1": "1 41469U 16027A   25341.23707321 -.00000333  00000+0  00000+0 0  9998",
        "tle_line2": "2 41469   4.7193 102.2409 0004656 336.6889 212.0722  1.00251985 35254"
      },
      "geometry": {
        "type": "Point",
        "coordinates": [
          -95.91570543773554,
          1.4472498696430598
        ]
      }
    },
    {
      "type": "Feature",
      "properties": {
        "norad_id": 41549,
        "name": "GSAT0211 (GALILEO 14)",
        "group": "gnss",
        "lat": 1.56554708023061,
        "lon": -131.95077890967363,
        "alt_km": 23210.85573977519,
        "timestamp": "2025-12-08T03:50:07.240916+00:00",
        "meta_object_name": "GSAT0211 (GALILEO 14)",
        "meta_object_id": "2016-030A",
        "meta_epoch": "2025-12-05T19:26:55.320000",
        "meta_mean_motion": 1.70472946,
        "meta_eccentricity": 0.00039556,
        "meta_inclination": 55.1547,
        "meta_ra_of_asc_node": 227.0144,
        "meta_arg_of_pericenter": 12.8849,
        "meta_mean_anomaly": 347.2228,
        "meta_ephemeris_type": 0,
        "meta_classification_type": "U",
        "meta_norad_cat_id": 41549,
        "meta_element_set_no": 999,
        "meta_rev_at_epoch": 5937,
        "meta_bstar": 0,
        "meta_mean_motion_dot": 3.5e-07,
        "meta_mean_motion_ddot": 0,
        "tle_line1": "1 41549U 16030A   25339.81036250  .00000035  00000+0  00000+0 0  9996",
        "tle_line2": "2 41549  55.1547 227.0144 0003955  12.8849 347.2228  1.70472946 59378"
      },
      "geometry": {
        "type": "Point",
        "coordinates": [
          -131.95077890967363,
          1.56554708023061
        ]
      }
    },
    {
      "type": "Feature",
      "properties": {
        "norad_id": 41550,
        "name": "GSAT0210 (GALILEO 13)",
        "group": "gnss",
        "lat": -19.46319985639997,
        "lon": 61.196545577287466,
        "alt_km": 23221.708652400113,
        "timestamp": "2025-12-08T03:50:07.240927+00:00",
        "meta_object_name": "GSAT0210 (GALILEO 13)",
        "meta_object_id": "2016-030B",
        "meta_epoch": "2025-12-04T07:23:32.472672",
        "meta_mean_motion": 1.70473512,
        "meta_eccentricity": 0.0001419,
        "meta_inclination": 55.1546,
        "meta_ra_of_asc_node": 227.0538,
        "meta_arg_of_pericenter": 244.2228,
        "meta_mean_anomaly": 115.8568,
        "meta_ephemeris_type": 0,
        "meta_classification_type": "U",
        "meta_norad_cat_id": 41550,
        "meta_element_set_no": 999,
        "meta_rev_at_epoch": 5934,
        "meta_bstar": 0,
        "meta_mean_motion_dot": 4e-07,
        "meta_mean_motion_ddot": 0,
        "tle_line1": "1 41550U 16030B   25338.30801473  .00000040  00000+0  00000+0 0  9994",
        "tle_line2": "2 41550  55.1546 227.0538 0001419 244.2228 115.8568  1.70473512 59344"
      },
      "geometry": {
        "type": "Point",
        "coordinates": [
          61.196545577287466,
          -19.46319985639997
        ]
      }
    },
    {
      "type": "Feature",
      "properties": {
        "norad_id": 41586,
        "name": "BEIDOU-2 G7 (C03)",
        "group": "gnss",
        "lat": 0.05481317576115569,
        "lon": -114.82154581442872,
        "alt_km": 35805.34376045944,
        "timestamp": "2025-12-08T03:50:07.240938+00:00",
        "meta_object_name": "BEIDOU-2 G7 (C03)",
        "meta_object_id": "2016-037A",
        "meta_epoch": "2025-12-07T00:27:47.134656",
        "meta_mean_motion": 1.0026987,
        "meta_eccentricity": 0.00043922,
        "meta_inclination": 1.7426,
        "meta_ra_of_asc_node": 67.7389,
        "meta_arg_of_pericenter": 1.2089,
        "meta_mean_anomaly": 124.5302,
        "meta_ephemeris_type": 0,
        "meta_classification_type": "U",
        "meta_norad_cat_id": 41586,
        "meta_element_set_no": 999,
        "meta_rev_at_epoch": 496,
        "meta_bstar": 0,
        "meta_mean_motion_dot": -3.49e-06,
        "meta_mean_motion_ddot": 0,
        "tle_line1": "1 41586U 16037A   25341.01929554 -.00000349  00000+0  00000+0 0  9996",
        "tle_line2": "2 41586   1.7426  67.7389 0004392   1.2089 124.5302  1.00269870  4963"
      },
      "geometry": {
        "type": "Point",
        "coordinates": [
          -114.82154581442872,
          0.05481317576115569
        ]
      }
    },
    {
      "type": "Feature",
      "properties": {
        "norad_id": 41589,
        "name": "EUTELSAT 117 WEST B (WAAS/PRN 131)",
        "group": "gnss",
        "lat": -0.011557506535098029,
        "lon": 17.685186697922504,
        "alt_km": 35785.46055026924,
        "timestamp": "2025-12-08T03:50:07.240953+00:00",
        "meta_object_name": "EUTELSAT 117 WEST B (WAAS/PRN 131)",
        "meta_object_id": "2016-038B",
        "meta_epoch": "2025-12-07T06:13:50.016288",
        "meta_mean_motion": 1.00269281,
        "meta_eccentricity": 3.842e-05,
        "meta_inclination": 0.0046,
        "meta_ra_of_asc_node": 145.3328,
        "meta_arg_of_pericenter": 269.6344,
        "meta_mean_anomaly": 357.7751,
        "meta_ephemeris_type": 0,
        "meta_classification_type": "U",
        "meta_norad_cat_id": 41589,
        "meta_element_set_no": 999,
        "meta_rev_at_epoch": 3473,
        "meta_bstar": 0,
        "meta_mean_motion_dot": -7e-08,
        "meta_mean_motion_ddot": 0,
        "tle_line1": "1 41589U 16038B   25341.25960667 -.00000007  00000+0  00000+0 0  9997",
        "tle_line2": "2 41589   0.0046 145.3328 0000384 269.6344 357.7751  1.00269281 34735"
      },
      "geometry": {
        "type": "Point",
        "coordinates": [
          17.685186697922504,
          -0.011557506535098029
        ]
      }
    }
  ]
}